[{"OBJECT_NAME":"STARLINK-2714","OBJECT_ID":"2021-041BC","EPOCH":"2026-03-09T12:09:07.246368","MEAN_MOTION":15.06404435,"ECCENTRICITY":0.00013941,"INCLINATION":53.0552,"RA_OF_ASC_NODE":112.4423,"ARG_OF_PERICENTER":94.341,"MEAN_ANOMALY":265.7738,"EPHEMERIS_TYPE":0,"CLASSIFICATION_TYPE":"U","NORAD_CAT_ID":48603,"ELEMENT_SET_NO":999,"REV_AT_EPOCH":26672,"BSTAR":0.00015382409,"MEAN_MOTION_DOT":2.011e-5,"MEAN_MOTION_DDOT":0},{"OBJECT_NAME":"CZ-4B DEB","OBJECT_ID":"2010-051H","EPOCH":"2026-03-08T15:03:50.230080","MEAN_MOTION":14.83710316,"ECCENTRICITY":0.01132064,"INCLINATION":97.7035,"RA_OF_ASC_NODE":129.0061,"ARG_OF_PERICENTER":211.6401,"MEAN_ANOMALY":147.7975,"EPHEMERIS_TYPE":0,"CLASSIFICATION_TYPE":"U","NORAD_CAT_ID":38326,"ELEMENT_SET_NO":999,"REV_AT_EPOCH":80705,"BSTAR":0.001509593,"MEAN_MOTION_DOT":0.00013943,"MEAN_MOTION_DDOT":0}]
